LEMUR-1                 
1 40044U 14033AL  26156.36921818  .00002706  00000+0  31518-3 0  9996
2 40044  97.7870 306.4384 0049647 116.3277 244.3049 14.85195828643715
LEMUR-2-GREENBERG       
1 42837U 17042N   26156.45426016  .00017915  00000+0  60014-3 0  9992
2 42837  97.3818 337.1368 0009625  53.8754 306.3377 15.30947383486591
LEMUR-2-ANDIS           
1 42838U 17042P   26156.44481691  .00022827  00000+0  68644-3 0  9997
2 42838  97.3680 337.2719 0009170  53.7295 306.4794 15.34356463486652
LEMUR-2-MONSON          
1 42839U 17042Q   26156.43777567  .00016073  00000+0  59569-3 0  9999
2 42839  97.4080 337.1100 0007299  46.0662 314.1179 15.27686603486370
LEMUR-2-PETERG          
1 42841U 17042S   26156.48690795  .00025837  00000+0  80093-3 0  9998
2 42841  97.3993 341.5028 0004191  39.2276 320.9270 15.33398658486640
LEMUR-2-DEMBITZ         
1 42842U 17042T   26156.46003299  .00017257  00000+0  59698-3 0  9998
2 42842  97.3826 338.1388 0007654  66.5488 293.6556 15.29927304486556
LEMUR-2-AMANDA-SVANTE   
1 48269U 21034B   26156.02834175  .00034350  00000+0  10584-2 0  9993
2 48269  97.5760 234.0002 0000891 268.8607  91.2533 15.33541007279191
LEMUR-2-SPECIAL-K       
1 48273U 21034F   26155.72710013  .00134550  00000+0  15811-2 0  9999
2 48273  97.5656 241.7174 0002667 238.8592 121.2404 15.60998083279740
LEMUR-2-EMBRIONOVIS     
1 56970U 23084AQ  26156.35595189  .00012705  00000+0  35012-3 0  9997
2 56970  97.6284 300.1050 0008582   5.5296 354.6041 15.37240567165863
LEMUR-2-DEVERILL-M-T    
1 57391U 23100F   26156.34028044  .00023881  00000+0  61678-3 0  9998
2 57391  99.4476 191.6837 0007391  86.6907 273.5178 15.39139085159425
LEMUR-2-BASS            
1 58259U 23174D   26156.47146315  .00017794  00000+0  40922-3 0  9994
2 58259  97.3843 241.0242 0006776 201.0261 159.0708 15.42692487143554
LEMUR-2-JK0903EM1407    
1 58336U 23174CJ  26155.24326317  .00028456  00000+0  49056-3 0  9990
2 58336  97.3910 245.3579 0005884 155.2357 204.9178 15.50993821143725
LEMUR-2-MJR092620       
1 58340U 23174CN  26156.49811578  .00019563  00000+0  42412-3 0  9999
2 58340  97.3971 246.3169 0006891 152.0728 208.0891 15.44429217143845
LEMUR-2-OBA-NI-JESU     
1 58902U 24022D   26156.39573581  .00770793  29383-3  12452-2 0  9992
2 58902  97.3760  20.6257 0004416 178.9245 181.2045 16.03522774131431
LEMUR-2-CAEL            
1 58903U 24022E   26156.39493664  .00016700  00000+0  41195-3 0  9995
2 58903  97.4098   7.1635 0009016 132.5023 227.6986 15.40570718130527
LEMUR-2-JOHNNYTRUONG    
1 59146U 24043BA  26156.66841525  .00039077  00000+0  49113-3 0  9991
2 59146  97.5379 307.6665 0004372 211.8335 148.2658 15.59585052126243
LEMUR-2-TOMATOKECHUP    
1 60471U 24149D   26155.92419552  .00012593  00000+0  36408-3 0  9997
2 60471  97.3797 237.9426 0000297 225.0802 135.0417 15.35767551100289
LEMUR-2-STELLA          
1 60533U 24149BT  26155.17398638  .00013309  00000+0  78866-3 0  9994
2 60533  97.6733 237.5749 0001851 101.9080 258.2357 15.11514040 98534
LEMUR-2-AHMED-ASRAR     
1 60576U 24149DN  26156.05627947  .00015334  00000+0  88520-3 0  9995
2 60576  97.6998 240.9433 0002659  70.4526 289.6991 15.12426387 98735
LEMUR-2-LLOYD           
1 60577U 24149DP  26156.50517715  .00011265  00000+0  71583-3 0  9997
2 60577  97.6743 237.6302 0004184 172.2075 187.9219 15.09002842 98631
LEMUR-2-SQUIRRELCOMM    
1 60578U 24149DQ  26155.70677593  .00008118  00000+0  54578-3 0  9998
2 60578  97.6704 236.6582 0006734  95.7677 264.4318 15.07003704 98523
LEMUR-2-SIERRINI        
1 60579U 24149DR  26156.49516970  .00011456  00000+0  69504-3 0  9991
2 60579  97.6842 239.0385 0004761 200.8426 159.2610 15.10690128 98694
LEMUR-2-WILSON          
1 62694U 25009CP  26156.45007931  .00002377  00000+0  22192-3 0  9999
2 62694  97.7029 235.1214 0004888  82.8178 277.3598 14.95116769 75601
LEMUR-2-STAR-FOX        
1 62696U 25009CR  26156.50420310  .00009074  00000+0  69076-3 0  9990
2 62696  97.6940 238.1986 0002621 144.3761 215.7639 15.02317388 75801
LEMUR-2-ARIANNA         
1 62699U 25009CU  26156.50239375  .00009394  00000+0  71525-3 0  9999
2 62699  97.6877 237.9804 0002869 151.7234 208.4147 15.02299720 75802
